NORAD_CAT_ID,OBJECT_NAME,OBJECT_TYPE,EPOCH,MEAN_MOTION,ECCENTRICITY,INCLINATION,RA_OF_ASC_NODE,ARG_OF_PERICENTER,MEAN_ANOMALY,BSTAR,MEAN_MOTION_DOT,MEAN_MOTION_DDOT,TLE_LINE0,TLE_LINE1,TLE_LINE2,SEMIMAJOR_AXIS,PERIOD,APOGEE,PERIGEE,DECAYED
53749.0,STARLINK-4680,PAYLOAD,2024-01-21 08:00:01,15.08826732,0.0001593,53.2156,158.468,80.7079,333.0574,0.0019078,0.00030194,0.0,0 STARLINK-4680,1 53749U 22107BB  24021.33335648  .00030194  00000-0  19078-2 0  9998,2 53749  53.2156 158.4680 0001593  80.7079 333.0574 15.08826732  5735,6917.921,95.438,540.888,538.684,0.0
53749.0,STARLINK-4680,PAYLOAD,2024-01-21 12:31:58,15.08808895,0.0001279,53.2138,157.6194,93.1885,266.9254,0.0034789,0.00055467,0.0,0 STARLINK-4680,1 53749U 22107BB  24021.52220629  .00055467  00000-0  34789-2 0  9997,2 53749  53.2138 157.6194 0001279  93.1885 266.9254 15.08808895 76333,6917.975,95.44,540.725,538.956,0.0
53749.0,STARLINK-4680,PAYLOAD,2024-01-21 18:53:32,15.08822921,0.00014,53.2145,156.4326,64.9612,295.1525,0.0017382,0.00027471,0.0,0 STARLINK-4680,1 53749U 22107BB  24021.78717715  .00027471  00000-0  17382-2 0  9996,2 53749  53.2145 156.4326 0001400  64.9612 295.1525 15.08822921 76370,6917.933,95.439,540.766,538.829,0.0
53749.0,STARLINK-4680,PAYLOAD,2024-01-22 15:33:33,15.08859295,0.0001838,53.2169,152.5637,52.6023,307.5137,0.0022461,0.00035659,0.0,0 STARLINK-4680,1 53749U 22107BB  24022.64830643  .00035659  00000-0  22461-2 0  9999,2 53749  53.2169 152.5637 0001838  52.6023 307.5137 15.08859295 76509,6917.821,95.436,540.958,538.415,0.0
53749.0,STARLINK-4680,PAYLOAD,2024-01-23 12:13:33,15.08884764,0.0001805,53.2169,148.697,61.5727,298.5447,0.0016513,0.00026123,0.0,0 STARLINK-4680,1 53749U 22107BB  24023.50941290  .00026123  00000-0  16513-2 0  9993,2 53749  53.2169 148.6970 0001805  61.5727 298.5447 15.08884764 76635,6917.744,95.435,540.857,538.36,0.0
53749.0,STARLINK-4680,PAYLOAD,2024-01-23 13:48:56,15.08880735,0.0001897,53.2167,148.401,58.9666,301.1512,0.0012095,0.00019035,0.0,0 STARLINK-4680,1 53749U 22107BB  24023.57565153  .00019035  00000-0  12095-2 0  9995,2 53749  53.2167 148.4010 0001897  58.9666 301.1512 15.08880735 77425,6917.756,95.435,540.933,538.309,0.0
53749.0,STARLINK-4680,PAYLOAD,2024-01-24 13:39:39,15.08838642,0.000155,53.217,143.9404,25.2646,334.8422,0.00040372,6.143e-05,0.0,0 STARLINK-4680,1 53749U 22107BB  24024.56921201  .00006143  00000-0  40372-3 0  9991,2 53749  53.2170 143.9404 0001550  25.2646 334.8422 15.08838642 77576,6917.885,95.438,540.822,538.677,0.0
53749.0,STARLINK-4680,PAYLOAD,2024-01-24 15:15:02,15.08838406,0.000123,53.217,143.6424,94.5159,265.5973,-0.0016345,-0.00026205,0.0,0 STARLINK-4680,1 53749U 22107BB  24024.63544688 -.00026205  00000-0 -16345-2 0  9994,2 53749  53.2170 143.6424 0001230  94.5159 265.5973 15.08838406 76802,6917.885,95.438,540.601,538.899,0.0
53749.0,STARLINK-4680,PAYLOAD,2024-01-25 11:55:06,15.08799517,0.0001938,53.2181,139.7835,59.3851,300.7332,0.00024099,3.545e-05,0.0,0 STARLINK-4680,1 53749U 22107BB  24025.49660136  .00003545  00000-0  24099-3 0  9992,2 53749  53.2181 139.7835 0001938  59.3851 300.7332 15.08799517 76933,6918.004,95.44,541.21,538.528,0.0
53749.0,STARLINK-4680,PAYLOAD,2024-01-25 13:30:29,15.08815706,0.0001947,53.2183,139.4848,59.378,300.7404,-0.00046848,-7.731e-05,0.0,0 STARLINK-4680,1 53749U 22107BB  24025.56283648 -.00007731  00000-0 -46848-3 0  9998,2 53749  53.2183 139.4848 0001947  59.3780 300.7404 15.08815706 77724,6917.955,95.439,541.167,538.473,0.0
53749.0,STARLINK-4680,PAYLOAD,2024-01-25 15:05:52,15.08815335,0.0001799,53.2184,139.187,81.6823,278.4373,-0.00029287,-4.943e-05,0.0,0 STARLINK-4680,1 53749U 22107BB  24025.62907805 -.00004943  00000-0 -29287-3 0  9993,2 53749  53.2184 139.1870 0001799  81.6823 278.4373 15.08815335 76956,6917.956,95.439,541.065,538.576,0.0
53749.0,STARLINK-4680,PAYLOAD,2024-01-26 11:45:54,15.08830756,0.000192,53.2184,135.3219,63.0791,297.0397,0.00063774,9.874e-05,0.0,0 STARLINK-4680,1 53749U 22107BB  24026.49021097  .00009874  00000-0  63774-3 0  9994,2 53749  53.2184 135.3219 0001920  63.0791 297.0397 15.08830756 77087,6917.909,95.438,541.102,538.445,0.0
53749.0,STARLINK-4680,PAYLOAD,2024-01-26 13:21:17,15.0883457,0.0002104,53.2182,135.0231,58.8295,301.2903,0.00074409,0.00011572,0.0,0 STARLINK-4680,1 53749U 22107BB  24026.55645201  .00011572  00000-0  74409-3 0  9995,2 53749  53.2182 135.0231 0002104  58.8295 301.2903 15.08834570 77878,6917.897,95.438,541.218,538.306,0.0
53749.0,STARLINK-4680,PAYLOAD,2024-01-26 16:32:03,15.08845478,0.0002095,53.219,134.4176,60.9276,299.1926,0.0009964,0.00015608,0.0,0 STARLINK-4680,1 53749U 22107BB  24026.68892977  .00015608  00000-0  99640-3 0  9991,2 53749  53.2190 134.4176 0002095  60.9276 299.1926 15.08845478 77116,6917.864,95.437,541.178,538.279,0.0
53749.0,STARLINK-4680,PAYLOAD,2024-01-27 13:12:04,15.08845778,0.0001762,53.2175,130.5617,81.3662,278.753,0.00052888,8.14e-05,0.0,0 STARLINK-4680,1 53749U 22107BB  24027.55005244  .00008140  00000-0  52888-3 0  9997,2 53749  53.2175 130.5617 0001762  81.3662 278.7530 15.08845778 77243,6917.863,95.437,540.947,538.509,0.0
53749.0,STARLINK-4680,PAYLOAD,2024-01-28 11:27:28,15.08836044,0.0001788,53.2174,126.4003,100.0912,260.0282,0.00010929,1.452e-05,0.0,0 STARLINK-4680,1 53749U 22107BB  24028.47741722  .00001452  00000-0  10929-3 0  9996,2 53749  53.2174 126.4003 0001788 100.0912 260.0282 15.08836044 77389,6917.892,95.438,540.994,538.521,0.0
53749.0,STARLINK-4680,PAYLOAD,2024-01-28 13:02:51,15.08838261,0.0001757,53.2174,126.103,99.6078,260.5113,7.7129e-05,9.4e-06,0.0,0 STARLINK-4680,1 53749U 22107BB  24028.54365668  .00000940  00000-0  77129-4 0  9992,2 53749  53.2174 126.1030 0001757  99.6078 260.5113 15.08838261 78177,6917.886,95.438,540.966,538.535,0.0
53749.0,STARLINK-4680,PAYLOAD,2024-01-29 14:29:01,15.08848958,0.0002075,53.2187,121.3454,114.2049,245.916,0.00034523,5.212e-05,0.0,0 STARLINK-4680,1 53749U 22107BB  24029.60349376  .00005212  00000-0  34523-3 0  9995,2 53749  53.2187 121.3454 0002075 114.2049 245.9160 15.08848958 77558,6917.853,95.437,541.153,538.283,0.0
53749.0,STARLINK-4680,PAYLOAD,2024-01-30 11:09:03,15.08840751,0.0001893,53.2182,117.4792,109.7611,250.3585,0.00011648,1.566e-05,0.0,0 STARLINK-4680,1 53749U 22107BB  24030.46461831  .00001566  00000-0  11648-3 0  9993,2 53749  53.2182 117.4792 0001893 109.7611 250.3585 15.08840751 77683,6917.878,95.438,541.053,538.434,0.0
53749.0,STARLINK-4680,PAYLOAD,2024-01-31 14:10:36,15.08846932,0.0001737,53.2177,112.4269,106.2002,253.9181,0.00019855,2.874e-05,0.0,0 STARLINK-4680,1 53749U 22107BB  24031.59069712  .00002874  00000-0  19855-3 0  9991,2 53749  53.2177 112.4269 0001737 106.2002 253.9181 15.08846932 78638,6917.859,95.437,540.926,538.523,0.0
53749.0,STARLINK-4680,PAYLOAD,2024-02-01 10:50:37,15.08837522,0.0001858,53.219,108.5591,82.3761,277.7442,8.4643e-05,1.059e-05,0.0,0 STARLINK-4680,1 53749U 22107BB  24032.45182447  .00001059  00000-0  84643-4 0  9990,2 53749  53.2190 108.5591 0001858  82.3761 277.7442 15.08837522 77983,6917.888,95.438,541.038,538.468,0.0
53749.0,STARLINK-4680,PAYLOAD,2024-02-01 12:26:00,15.08841851,0.000166,53.2175,108.2628,84.406,275.7122,0.00015897,2.243e-05,0.0,0 STARLINK-4680,1 53749U 22107BB  24032.51806250  .00002243  00000-0  15897-3 0  9992,2 53749  53.2175 108.2628 0001660  84.4060 275.7122 15.08841851 78771,6917.875,95.437,540.888,538.591,0.0
53749.0,STARLINK-4680,PAYLOAD,2024-02-02 12:16:47,15.08850051,0.0001935,53.2179,103.8018,67.6376,292.4821,0.00025721,3.809e-05,0.0,0 STARLINK-4680,1 53749U 22107BB  24033.51165993  .00003809  00000-0  25721-3 0  9991,2 53749  53.2179 103.8018 0001935  67.6376 292.4821 15.08850051 78142,6917.85,95.437,541.053,538.376,0.0
53749.0,STARLINK-4680,PAYLOAD,2024-02-03 04:10:38,15.08841923,0.0001708,53.2182,100.8287,81.2023,278.9163,4.0585e-05,3.58e-06,0.0,0 STARLINK-4680,1 53749U 22107BB  24034.17406149  .00000358  00000-0  40585-4 0  9997,2 53749  53.2182 100.8287 0001708  81.2023 278.9163 15.08841923 78247,6917.875,95.437,540.921,538.558,0.0
53749.0,STARLINK-4680,PAYLOAD,2024-02-03 10:32:11,15.08842391,0.0001857,53.219,99.6385,74.4973,285.6225,7.7957e-05,9.53e-06,0.0,0 STARLINK-4680,1 53749U 22107BB  24034.43902420  .00000953  00000-0  77957-4 0  9993,2 53749  53.2190  99.6385 0001857  74.4973 285.6225 15.08842391 79068,6917.873,95.437,541.023,538.453,0.0
53749.0,STARLINK-4680,PAYLOAD,2024-02-04 04:01:26,15.08828417,0.0001968,53.2193,96.3678,88.0305,272.0913,0.00055987,8.631e-05,0.0,0 STARLINK-4680,1 53749U 22107BB  24035.16766939  .00008631  00000-0  55987-3 0  9996,2 53749  53.2193  96.3678 0001968  88.0305 272.0913 15.08828417 78395,6917.916,95.438,541.142,538.419,0.0
53749.0,STARLINK-4680,PAYLOAD,2024-02-04 10:22:58,15.08852728,0.0001831,53.2194,95.1789,79.1185,281.0013,7.3791e-05,8.87e-06,0.0,0 STARLINK-4680,1 53749U 22107BB  24035.43261941  .00000887  00000-0  73791-4 0  9998,2 53749  53.2194  95.1789 0001831  79.1185 281.0013 15.08852728 78430,6917.841,95.437,540.973,538.44,0.0
53749.0,STARLINK-4680,PAYLOAD,2024-02-05 03:52:13,15.08840102,0.0002086,53.2191,91.9093,71.0056,289.1162,0.00013811,1.911e-05,0.0,0 STARLINK-4680,1 53749U 22107BB  24036.16126711  .00001911  00000-0  13811-3 0  9999,2 53749  53.2191  91.9093 0002086  71.0056 289.1162 15.08840102 78549,6917.88,95.438,541.188,538.302,0.0
53749.0,STARLINK-4680,PAYLOAD,2024-02-05 10:13:45,15.0884168,0.0001786,53.2186,90.7172,94.5884,265.5312,0.00014208,1.974e-05,0.0,0 STARLINK-4680,1 53749U 22107BB  24036.42622483  .00001974  00000-0  14208-3 0  9995,2 53749  53.2186  90.7172 0001786  94.5884 265.5312 15.08841680 79361,6917.875,95.437,540.976,538.505,0.0
53749.0,STARLINK-4680,PAYLOAD,2024-02-06 10:04:32,15.08848437,0.0001803,53.2179,86.2556,95.6433,264.4765,0.00014891,2.083e-05,0.0,0 STARLINK-4680,1 53749U 22107BB  24037.41982156  .00002083  00000-0  14891-3 0  9991,2 53749  53.2179  86.2556 0001803  95.6433 264.4765 15.08848437 78738,6917.855,95.437,540.967,538.472,0.0
